OBJECT_NAME,OBJECT_ID,EPOCH,MEAN_MOTION,ECCENTRICITY,INCLINATION,RA_OF_ASC_NODE,ARG_OF_PERICENTER,MEAN_ANOMALY,EPHEMERIS_TYPE,CLASSIFICATION_TYPE,NORAD_CAT_ID,ELEMENT_SET_NO,REV_AT_EPOCH,BSTAR,MEAN_MOTION_DOT,MEAN_MOTION_DDOT
GONETS-M 25,2022-139C,2026-07-02T06:36:16.028064,12.42890541,.00205518,82.5064,338.6606,194.9998,165.0474,0,U,54152,999,16752,.93343236E-4,.23E-6,0
SKIF-D,2022-139D,2026-06-29T15:33:21.063744,5.00427113,.00074078,89.9495,96.6644,193.5770,166.4619,0,U,54153,999,6473,0,.3E-7,0
STARLINK-5290,2022-141A,2026-07-02T06:08:59.028000,15.08824193,.00011468,53.1586,219.5722,90.3278,269.7845,0,U,54157,999,20301,-.16744035E-4,-.554E-5,0
STARLINK-5297,2022-141B,2026-07-02T06:34:06.628512,15.08826901,.00010778,53.1592,219.6803,79.4423,280.6690,0,U,54158,999,20301,.64241858E-4,.734E-5,0
STARLINK-5294,2022-141C,2026-07-02T06:28:48.572832,15.08829863,.00011032,53.1590,219.6635,63.1655,296.9449,0,U,54159,999,20301,.70110203E-4,.828E-5,0
STARLINK-5233,2022-141D,2026-07-02T06:00:17.612640,15.08835188,.00012234,53.1590,174.6199,87.6532,272.4599,0,U,54160,999,20364,.5409597E-5,-.202E-5,0
STARLINK-5269,2022-141E,2026-07-02T06:30:10.991520,15.08829787,.00011632,53.1589,219.6628,79.5423,280.5700,0,U,54161,999,20301,.13929343E-4,-.66E-6,0
STARLINK-5273,2022-141F,2026-07-02T06:18:12.505536,15.08833060,.00012277,53.1585,219.6096,74.3365,285.7762,0,U,54162,999,20301,.91750059E-4,.1172E-4,0
STARLINK-5161,2022-141G,2026-07-02T06:00:02.999808,15.29676310,.00014014,53.1588,208.7918,58.6539,339.8923,0,U,54163,999,574,.36219761E-1,.1144049E-1,0
STARLINK-5278,2022-141H,2026-07-02T06:00:02.999808,15.27993361,.00006934,53.1597,208.9879,93.0656,203.9735,0,U,54164,999,574,.39596539E-1,.1192406E-1,0
STARLINK-5279,2022-141J,2026-07-02T06:12:53.025120,15.08832686,.00012227,53.1595,219.5875,84.5996,275.5134,0,U,54165,999,20301,.647969E-6,-.278E-5,0
STARLINK-5280,2022-141K,2026-07-02T06:00:02.999808,15.25791620,.00013578,53.1597,209.0281,86.9697,188.9456,0,U,54166,999,574,.49597366E-3,.12519E-3,0
STARLINK-5243,2022-141L,2026-07-02T07:21:44.474400,15.08831586,.00011392,53.1585,219.1752,85.3233,274.7889,0,U,54167,999,20302,-.9132639E-5,-.433E-5,0
STARLINK-5245,2022-141M,2026-07-02T06:00:02.999808,15.24790423,.00013102,53.1598,209.0674,97.6337,159.5472,0,U,54168,999,579,.44962259E-1,.1233377E-1,0
STARLINK-5282,2022-141N,2026-07-02T06:00:02.999808,15.21684367,.00008755,53.1585,208.8101,51.9760,336.4282,0,U,54169,999,574,.20801989E-2,.4764E-3,0
STARLINK-5155,2022-141P,2026-07-02T06:00:02.999808,15.27162196,.00008319,53.1590,208.8331,78.7938,298.6477,0,U,54170,999,584,.14334353E-2,.38533E-3,0
STARLINK-5117,2022-141R,2026-07-02T06:00:02.999808,15.28433566,.00018791,53.1597,208.6412,79.5275,35.4704,0,U,54172,999,559,.39114106E-1,.1193672E-1,0
STARLINK-5242,2022-141S,2026-07-02T06:00:02.999808,15.23497644,.00011914,53.1599,208.7397,88.0789,334.0394,0,U,54173,999,580,.97246032E-2,.242655E-2,0
STARLINK-5248,2022-141T,2026-07-02T05:25:48.811296,15.08830557,.00014021,53.1587,154.5007,64.9599,295.1538,0,U,54174,999,20392,.40261979E-4,.353E-5,0
STARLINK-5256,2022-141U,2026-07-02T06:00:02.999808,15.26983219,.0000897,53.1592,208.8626,62.5451,298.5931,0,U,54175,999,569,.10418859E-2,.27719E-3,0
STARLINK-5154,2022-141V,2026-07-02T06:00:02.999808,15.28845449,.00016784,53.1611,208.4941,94.3812,96.3319,0,U,54176,999,580,.40005678E-1,.1240492E-1,0
STARLINK-5186,2022-141W,2026-07-02T06:00:02.999808,15.27916718,.00009454,53.1593,208.7791,31.9636,12.3637,0,U,54177,999,584,.21274551E-2,.58858E-3,0
STARLINK-5164,2022-141X,2026-07-02T06:00:02.999808,15.25357300,.00016903,53.1592,208.6696,68.8891,20.2630,0,U,54178,999,565,.44237942E-1,.1234194E-1,0
STARLINK-5122,2022-141Y,2026-07-02T06:00:02.999808,15.27323859,.00015564,53.1599,208.6370,82.3581,34.3207,0,U,54179,999,585,.40190172E-1,.1185266E-1,0
STARLINK-5227,2022-141AA,2026-07-02T06:00:02.999808,15.25061335,.00011429,53.1591,208.7988,60.9285,331.7948,0,U,54181,999,575,.43971145E-1,.1214295E-1,0
STARLINK-5231,2022-141AB,2026-07-02T06:44:37.051296,15.08831962,.00012191,53.1590,179.1464,74.7924,285.3202,0,U,54182,999,20358,-.257534E-6,-.292E-5,0
STARLINK-5239,2022-141AC,2026-07-02T06:00:02.999808,15.23574698,.00015993,53.1591,208.7299,61.8542,6.4918,0,U,54183,999,580,.46666319E-1,.1234926E-1,0
STARLINK-5162,2022-141AD,2026-07-02T06:00:02.999808,15.22066624,.00005472,53.1598,209.6163,97.0100,229.2642,0,U,54184,999,580,.17122479E-2,.39556E-3,0
STARLINK-5235,2022-141AE,2026-07-02T06:00:02.999808,15.25002202,.0001405,53.1591,208.7651,55.5217,353.9252,0,U,54185,999,580,.44225265E-1,.1219594E-1,0
STARLINK-5240,2022-141AG,2026-07-02T06:00:02.999808,15.24502865,.00007676,53.1587,208.8637,51.4693,312.3173,0,U,54187,999,575,.45340428E-1,.1233245E-1,0
