GONETS-M 25             
1 54152U 22139C   26183.27518551  .00000023  00000+0  93343-4 0  9998
2 54152  82.5064 338.6606 0020551 194.9998 165.0474 12.42890541167522
SKIF-D                  
1 54153U 22139D   26180.64816046  .00000003  00000+0  00000+0 0  9998
2 54153  89.9495  96.6644 0007407 193.5770 166.4619  5.00427113 64735
STARLINK-5290           
1 54157U 22141A   26183.25623875 -.00000554  00000+0 -16744-4 0  9991
2 54157  53.1586 219.5722 0001146  90.3278 269.7845 15.08824193203019
STARLINK-5297           
1 54158U 22141B   26183.27368783  .00000734  00000+0  64242-4 0  9992
2 54158  53.1592 219.6803 0001077  79.4423 280.6690 15.08826901203010
STARLINK-5294           
1 54159U 22141C   26183.27000663  .00000828  00000+0  70110-4 0  9998
2 54159  53.1590 219.6635 0001103  63.1655 296.9449 15.08829863203011
STARLINK-5233           
1 54160U 22141D   26183.25020385 -.00000202  00000+0  54096-5 0  9994
2 54160  53.1590 174.6199 0001223  87.6532 272.4599 15.08835188203647
STARLINK-5269           
1 54161U 22141E   26183.27096055 -.00000066  00000+0  13929-4 0  9991
2 54161  53.1589 219.6628 0001163  79.5423 280.5700 15.08829787203018
STARLINK-5273           
1 54162U 22141F   26183.26264474  .00001172  00000+0  91750-4 0  9999
2 54162  53.1585 219.6096 0001227  74.3365 285.7762 15.08833060203017
STARLINK-5161           
1 54163U 22141G   26183.25003472  .01144049  00000+0  36220-1 0  9998
2 54163  53.1588 208.7918 0001401  58.6539 339.8923 15.29676310  5741
STARLINK-5278           
1 54164U 22141H   26183.25003472  .01192406  00000+0  39597-1 0  9999
2 54164  53.1597 208.9879 0000693  93.0656 203.9735 15.27993361  5743
STARLINK-5279           
1 54165U 22141J   26183.25894705 -.00000278  00000+0  64797-6 0  9997
2 54165  53.1595 219.5875 0001222  84.5996 275.5134 15.08832686203016
STARLINK-5280           
1 54166U 22141K   26183.25003472  .00012519  00000+0  49597-3 0  9999
2 54166  53.1597 209.0281 0001357  86.9697 188.9456 15.25791620  5742
STARLINK-5243           
1 54167U 22141L   26183.30676475 -.00000433  00000+0 -91326-5 0  9998
2 54167  53.1585 219.1752 0001139  85.3233 274.7889 15.08831586203024
STARLINK-5245           
1 54168U 22141M   26183.25003472  .01233377  00000+0  44962-1 0  9998
2 54168  53.1598 209.0674 0001310  97.6337 159.5472 15.24790423  5796
STARLINK-5282           
1 54169U 22141N   26183.25003472  .00047640  00000+0  20802-2 0  9992
2 54169  53.1585 208.8101 0000875  51.9760 336.4282 15.21684367  5749
STARLINK-5155           
1 54170U 22141P   26183.25003472  .00038533  00000+0  14334-2 0  9998
2 54170  53.1590 208.8331 0000831  78.7938 298.6477 15.27162196  5841
STARLINK-5117           
1 54172U 22141R   26183.25003472  .01193672  00000+0  39114-1 0  9999
2 54172  53.1597 208.6412 0001879  79.5275  35.4704 15.28433566  5599
STARLINK-5242           
1 54173U 22141S   26183.25003472  .00242655  00000+0  97246-2 0  9996
2 54173  53.1599 208.7397 0001191  88.0789 334.0394 15.23497644  5806
STARLINK-5248           
1 54174U 22141T   26183.22625939  .00000353  00000+0  40262-4 0  9997
2 54174  53.1587 154.5007 0001402  64.9599 295.1538 15.08830557203924
STARLINK-5256           
1 54175U 22141U   26183.25003472  .00027719  00000+0  10419-2 0  9997
2 54175  53.1592 208.8626 0000897  62.5451 298.5931 15.26983219  5691
STARLINK-5154           
1 54176U 22141V   26183.25003472  .01240492  00000+0  40006-1 0  9998
2 54176  53.1611 208.4941 0001678  94.3812  96.3319 15.28845449  5803
STARLINK-5186           
1 54177U 22141W   26183.25003472  .00058858  00000+0  21275-2 0  9999
2 54177  53.1593 208.7791 0000945  31.9636  12.3637 15.27916718  5848
STARLINK-5164           
1 54178U 22141X   26183.25003472  .01234194  00000+0  44238-1 0  9993
2 54178  53.1592 208.6696 0001690  68.8891  20.2630 15.25357300  5655
STARLINK-5122           
1 54179U 22141Y   26183.25003472  .01185266  00000+0  40190-1 0  9992
2 54179  53.1599 208.6370 0001556  82.3581  34.3207 15.27323859  5852
STARLINK-5227           
1 54181U 22141AA  26183.25003472  .01214295  00000+0  43971-1 0  9990
2 54181  53.1591 208.7988 0001142  60.9285 331.7948 15.25061335  5758
STARLINK-5231           
1 54182U 22141AB  26183.28098439 -.00000292  00000+0 -25753-6 0  9995
2 54182  53.1590 179.1464 0001219  74.7924 285.3202 15.08831962203586
STARLINK-5239           
1 54183U 22141AC  26183.25003472  .01234926  00000+0  46666-1 0  9999
2 54183  53.1591 208.7299 0001599  61.8542   6.4918 15.23574698  5805
STARLINK-5162           
1 54184U 22141AD  26183.25003472  .00039556  00000+0  17122-2 0  9997
2 54184  53.1598 209.6163 0000547  97.0100 229.2642 15.22066624  5809
STARLINK-5235           
1 54185U 22141AE  26183.25003472  .01219594  00000+0  44225-1 0  9994
2 54185  53.1591 208.7651 0001405  55.5217 353.9252 15.25002202  5804
STARLINK-5240           
1 54187U 22141AG  26183.25003472  .01233245  00000+0  45340-1 0  9994
2 54187  53.1587 208.8637 0000767  51.4693 312.3173 15.24502865  5753
